NORAD_CAT_ID,OBJECT_NAME,OBJECT_TYPE,EPOCH,MEAN_MOTION,ECCENTRICITY,INCLINATION,RA_OF_ASC_NODE,ARG_OF_PERICENTER,MEAN_ANOMALY,BSTAR,MEAN_MOTION_DOT,MEAN_MOTION_DDOT,TLE_LINE0,TLE_LINE1,TLE_LINE2,SEMIMAJOR_AXIS,PERIOD,APOGEE,PERIGEE,DECAYED
56470.0,STARLINK-5523,PAYLOAD,2023-08-30 22:00:00,15.44301418,0.000335,69.9989,290.941,273.2033,213.3261,-0.020999,-0.00893745,0.0,0 STARLINK-5523,1 56470U 23064Y   23242.91667824 -.00893745  00000-0 -20999-1 0  9991,2 56470  69.9989 290.9410 0003350 273.2033 213.3261 15.44301418 17962,6811.568,93.246,435.715,431.152,0.0
56470.0,STARLINK-5523,PAYLOAD,2023-08-31 14:00:01,15.43000645,0.0003389,69.9986,289.1389,276.5707,313.6517,-0.021784,-0.00887663,0.0,0 STARLINK-5523,1 56470U 23064Y   23243.58334491 -.00887663  00000-0 -21784-1 0  9991,2 56470  69.9986 289.1389 0003389 276.5707 313.6517 15.43000645 18067,6815.396,93.325,439.571,434.951,0.0
56470.0,STARLINK-5523,PAYLOAD,2023-08-31 22:00:01,15.42340956,0.0003399,69.9985,288.239,271.0436,9.9206,-0.022275,-0.00887723,0.0,0 STARLINK-5523,1 56470U 23064Y   23243.91668981 -.00887723  00000-0 -22275-1 0  9995,2 56470  69.9985 288.2390 0003399 271.0436   9.9206 15.42340956  6066,6817.339,93.365,441.522,436.887,0.0
56470.0,STARLINK-5523,PAYLOAD,2023-09-01 04:00:00,15.41885278,0.0003277,69.9987,287.5649,269.2436,319.1297,-0.023451,-0.00917787,0.0,0 STARLINK-5523,1 56470U 23064Y   23244.16667824 -.00917787  00000-0 -23451-1 0  9999,2 56470  69.9987 287.5649 0003277 269.2436 319.1297 15.41885278 18150,6818.682,93.392,442.782,438.313,0.0
56470.0,STARLINK-5523,PAYLOAD,2023-09-01 14:00:01,15.41047167,0.0003498,69.9983,286.4421,277.5079,102.3896,-0.023373,-0.00891715,0.0,0 STARLINK-5523,1 56470U 23064Y   23244.58334491 -.00891715  00000-0 -23373-1 0  9991,2 56470  69.9983 286.4421 0003498 277.5079 102.3896 15.41047167  6029,6821.155,93.443,445.406,440.633,0.0
56470.0,STARLINK-5523,PAYLOAD,2023-09-01 22:00:00,15.40374637,0.0003408,69.9983,285.545,272.2546,155.9778,-0.023317,-0.00871542,0.0,0 STARLINK-5523,1 56470U 23064Y   23244.91667824 -.00871542  00000-0 -23317-1 0  9991,2 56470  69.9983 285.5450 0003408 272.2546 155.9778 15.40374637 18270,6823.14,93.484,447.33,442.679,0.0
56470.0,STARLINK-5523,PAYLOAD,2023-09-02 14:00:01,15.39092745,0.0003253,69.9982,283.7535,277.5293,245.003,-0.025016,-0.00894338,0.0,0 STARLINK-5523,1 56470U 23064Y   23245.58334491 -.00894338  00000-0 -25016-1 0  9992,2 56470  69.9982 283.7535 0003253 277.5293 245.0030 15.39092745 18376,6826.928,93.562,451.014,446.572,0.0
56470.0,STARLINK-5523,PAYLOAD,2023-09-02 22:00:00,15.38417084,0.0003219,69.9982,282.8591,270.9538,297.5674,-0.024775,-0.00868422,0.0,0 STARLINK-5523,1 56470U 23064Y   23245.91667824 -.00868422  00000-0 -24775-1 0  9994,2 56470  69.9982 282.8591 0003219 270.9538 297.5674 15.38417084  6020,6828.927,93.603,452.99,448.593,0.0
56470.0,STARLINK-5523,PAYLOAD,2023-09-03 04:00:00,15.37981747,0.0003222,69.9984,282.1892,271.4679,241.0018,-0.02729,-0.00936964,0.0,0 STARLINK-5523,1 56470U 23064Y   23246.16667824 -.00936964  00000-0 -27290-1 0  9994,2 56470  69.9984 282.1892 0003222 271.4679 241.0018 15.37981747 18463,6830.215,93.629,454.281,449.88,0.0
56470.0,STARLINK-5523,PAYLOAD,2023-09-03 14:00:01,15.3714401,0.0003397,69.9979,281.0732,275.9404,22.1839,-0.027073,-0.0090712,0.0,0 STARLINK-5523,1 56470U 23064Y   23246.58334491 -.00907120  00000-0 -27073-1 0  9992,2 56470  69.9979 281.0732 0003397 275.9404  22.1839 15.37144010  6028,6832.697,93.68,456.883,452.241,0.0
56470.0,STARLINK-5523,PAYLOAD,2023-09-04 14:00:01,15.35187135,0.000346,69.998,278.4007,279.3008,147.3781,-0.028854,-0.0090763,0.0,0 STARLINK-5523,1 56470U 23064Y   23247.58334491 -.00907630  00000-0 -28854-1 0  9997,2 56470  69.9980 278.4007 0003460 279.3008 147.3781 15.35187135 18688,6838.502,93.8,462.733,458.001,0.0
56470.0,STARLINK-5523,PAYLOAD,2023-09-05 14:00:01,15.33227009,0.0003357,69.9984,275.7362,277.4716,270.7229,-0.030605,-0.00904674,0.0,0 STARLINK-5523,1 56470U 23064Y   23248.58334491 -.00904674  00000-0 -30605-1 0  9990,2 56470  69.9984 275.7362 0003357 277.4716 270.7229 15.33227009 18834,6844.329,93.92,468.491,463.896,0.0
56470.0,STARLINK-5523,PAYLOAD,2023-09-06 14:00:01,15.31276192,0.0003455,69.9985,273.0795,275.3969,27.2693,-0.032913,-0.00914175,0.0,0 STARLINK-5523,1 56470U 23064Y   23249.58334491 -.00914175  00000-0 -32913-1 0  9992,2 56470  69.9985 273.0795 0003455 275.3969  27.2693 15.31276192 18983,6850.141,94.039,474.372,469.639,0.0
56470.0,STARLINK-5523,PAYLOAD,2023-09-06 22:00:00,15.30583995,0.0003411,69.9986,272.1959,269.3227,69.9489,-0.0312,-0.00853079,0.0,0 STARLINK-5523,1 56470U 23064Y   23249.91667824 -.00853079  00000-0 -31200-1 0  9991,2 56470  69.9986 272.1959 0003411 269.3227  69.9489 15.30583995  6027,6852.206,94.082,476.408,471.733,0.0
56470.0,STARLINK-5523,PAYLOAD,2023-09-07 01:14:21,15.32241357,0.000252,69.9956,271.841,255.5867,104.503,-0.008122,-0.00245582,0.0,0 STARLINK-5523,1 56470U 23064Y   23250.05164154 -.00245582  00000-0 -81220-2 0  9998,2 56470  69.9956 271.8410 0002520 255.5867 104.5030 15.32241357 19059,6847.264,93.98,470.854,467.403,0.0
56470.0,STARLINK-5523,PAYLOAD,2023-09-07 14:00:01,15.29325389,0.0003406,69.9985,270.431,277.6587,132.4383,-0.035314,-0.00922413,0.0,0 STARLINK-5523,1 56470U 23064Y   23250.58334491 -.00922413  00000-0 -35314-1 0  9996,2 56470  69.9985 270.4310 0003406 277.6587 132.4383 15.29325389 19148,6855.965,94.159,480.165,475.495,0.0
56470.0,STARLINK-5523,PAYLOAD,2023-09-07 22:00:00,15.28627319,0.0003313,69.9985,269.5499,270.9509,173.4066,-0.033159,-0.00853355,0.0,0 STARLINK-5523,1 56470U 23064Y   23250.91667824 -.00853355  00000-0 -33159-1 0  9995,2 56470  69.9985 269.5499 0003313 270.9509 173.4066 15.28627319  5877,6858.052,94.202,482.189,477.645,0.0
56470.0,STARLINK-5523,PAYLOAD,2023-09-08 14:00:01,15.27374112,0.00032,69.9983,267.7903,277.7372,232.7505,-0.037927,-0.0094393,0.0,0 STARLINK-5523,1 56470U 23064Y   23251.58334491 -.00943930  00000-0 -37927-1 0  9996,2 56470  69.9983 267.7903 0003200 277.7372 232.7505 15.27374112  5970,6861.803,94.279,485.863,481.472,0.0
56470.0,STARLINK-5523,PAYLOAD,2023-09-08 22:00:00,15.26671504,0.0003186,69.9983,266.912,270.2,272.202,-0.035175,-0.00852736,0.0,0 STARLINK-5523,1 56470U 23064Y   23251.91667824 -.00852736  00000-0 -35175-1 0  9998,2 56470  69.9983 266.9120 0003186 270.2000 272.2020 15.26671504 19342,6863.908,94.323,487.96,483.586,0.0
56470.0,STARLINK-5523,PAYLOAD,2023-09-09 14:00:01,15.25421263,0.0003219,69.9979,265.1576,275.7159,328.123,-0.040656,-0.00952968,0.0,0 STARLINK-5523,1 56470U 23064Y   23252.58334491 -.00952968  00000-0 -40656-1 0  9991,2 56470  69.9979 265.1576 0003219 275.7159 328.1230 15.25421263 19444,6867.658,94.4,491.733,487.312,0.0
56470.0,STARLINK-5523,PAYLOAD,2023-09-10 06:00:00,15.24103125,0.0003303,69.9979,263.407,272.9796,29.1881,-0.041359,-0.00933357,0.0,0 STARLINK-5523,1 56470U 23064Y   23253.25001157 -.00933357  00000-0 -41359-1 0  9998,2 56470  69.9979 263.4070 0003303 272.9796  29.1881 15.24103125 19548,6871.617,94.482,495.752,491.212,0.0
56470.0,STARLINK-5523,PAYLOAD,2023-09-10 14:00:01,15.23465862,0.0003329,69.9975,262.5327,276.6937,53.4565,-0.043277,-0.00956414,0.0,0 STARLINK-5523,1 56470U 23064Y   23253.58334491 -.00956414  00000-0 -43277-1 0  9994,2 56470  69.9975 262.5327 0003329 276.6937  53.4565 15.23465862  6010,6873.533,94.521,497.686,493.11,0.0
56470.0,STARLINK-5523,PAYLOAD,2023-09-11 14:00:01,15.21508276,0.0003309,69.9972,259.9156,279.0207,130.4008,-0.045817,-0.00955553,0.0,0 STARLINK-5523,1 56470U 23064Y   23254.58334491 -.00955553  00000-0 -45817-1 0  9990,2 56470  69.9972 259.9156 0003309 279.0207 130.4008 15.21508276 19750,6879.427,94.643,503.569,499.016,0.0
56470.0,STARLINK-5523,PAYLOAD,2023-09-12 06:00:00,15.20184846,0.0003247,69.9975,258.1752,276.7444,181.6208,-0.046154,-0.00928029,0.0,0 STARLINK-5523,1 56470U 23064Y   23255.25001157 -.00928029  00000-0 -46154-1 0  9998,2 56470  69.9975 258.1752 0003247 276.7444 181.6208 15.20184846 19857,6883.42,94.725,507.52,503.05,0.0
56470.0,STARLINK-5523,PAYLOAD,2023-09-12 14:00:01,15.1955146,0.0003184,69.9972,257.3061,279.6074,202.108,-0.048575,-0.00956526,0.0,0 STARLINK-5523,1 56470U 23064Y   23255.58335648 -.00956526  00000-0 -48575-1 0  9991,2 56470  69.9972 257.3061 0003184 279.6074 202.1080 15.19551460  6018,6885.332,94.765,509.39,505.005,0.0
56470.0,STARLINK-5523,PAYLOAD,2023-09-12 22:00:00,15.18853964,0.0003139,69.9975,256.4381,273.2742,230.9003,-0.044994,-0.00874219,0.0,0 STARLINK-5523,1 56470U 23064Y   23255.91667824 -.00874219  00000-0 -44994-1 0  9991,2 56470  69.9975 256.4381 0003139 273.2742 230.9003 15.18853964  6037,6887.44,94.808,511.467,507.143,0.0
56470.0,STARLINK-5523,PAYLOAD,2023-09-13 06:00:02,15.18223267,0.0003167,69.9974,255.5709,276.3996,249.5674,-0.048443,-0.00920623,0.0,0 STARLINK-5523,1 56470U 23064Y   23256.25002315 -.00920623  00000-0 -48443-1 0  9991,2 56470  69.9974 255.5709 0003167 276.3996 249.5674 15.18223267 20006,6889.347,94.848,513.394,509.03,0.0
56470.0,STARLINK-5523,PAYLOAD,2023-09-13 14:00:01,15.17595513,0.0003125,69.9972,254.7044,277.9843,268.8577,-0.051589,-0.00959649,0.0,0 STARLINK-5523,1 56470U 23064Y   23256.58334491 -.00959649  00000-0 -51589-1 0  9995,2 56470  69.9972 254.7044 0003125 277.9843 268.8577 15.17595513  5834,6891.247,94.887,515.266,510.959,0.0
56470.0,STARLINK-5523,PAYLOAD,2023-09-13 22:00:00,15.16901122,0.0003101,69.9974,253.839,271.6336,295.3825,-0.047932,-0.00879877,0.0,0 STARLINK-5523,1 56470U 23064Y   23256.91667824 -.00879877  00000-0 -47932-1 0  9992,2 56470  69.9974 253.8390 0003101 271.6336 295.3825 15.16901122  5884,6893.35,94.93,517.353,513.077,0.0
56470.0,STARLINK-5523,PAYLOAD,2023-09-14 06:00:00,15.16263741,0.0003183,69.9975,252.9745,275.578,310.823,-0.050941,-0.0091547,0.0,0 STARLINK-5523,1 56470U 23064Y   23257.25001157 -.00915470  00000-0 -50941-1 0  9995,2 56470  69.9975 252.9745 0003183 275.5780 310.8230 15.16263741 20153,6895.282,94.97,519.341,514.952,0.0
